INTELSAT 30 (IS-30)     
1 40271U 14062A   26114.39488937 -.00000165  00000+0  00000+0 0  9993
2 40271   0.0073 224.7449 0002247  46.3663 348.4158  1.00269572  6259
DIRECTV 14              
1 40333U 14078B   26117.10183941 -.00000136  00000+0  00000+0 0  9996
2 40333   0.0115  56.2272 0000071  70.8345  25.4552  1.00272214 41536
DIRECTV 15              
1 40663U 15026A   26117.01155927  .00000000  00000+0  00000+0 0  9998
2 40663   0.0133 117.8329 0000099  23.3852 335.0755  1.00268423 39950
SKY MEXICO-1            
1 40664U 15026B   26116.99489096  .00000000  00000+0  00000+0 0  9992
2 40664   0.0213 104.3535 0002199 294.7306  95.2530  1.00268630 39946
INTELSAT 34 (IS-34)     
1 40874U 15039A   26117.05344142 -.00000296  00000+0  00000+0 0  9997
2 40874   0.0159 282.6958 0000392  53.1503 202.9473  1.00272031 39129
INTELSAT 31 (IS-31)     
1 41581U 16035A   26117.20253023 -.00000161  00000+0  00000+0 0  9995
2 41581   0.0118 236.8963 0002175  37.6939 278.4700  1.00271579 36177
INTELSAT 36 (IS-36)     
1 41747U 16053A   26117.17822741 -.00000033  00000+0  00000+0 0  9992
2 41747   0.0113 314.3080 0002018   5.2296  28.2866  1.00264533 35446
INTELSAT 32E (IS-32E)   
1 41945U 17007B   26117.05586810  .00000000  00000+0  00000+0 0  9996
2 41945   0.0214 249.0957 0000100   9.5332 293.3676  1.00263609 33718
INTELSAT 35E (IS-35E)   
1 42818U 17041A   26117.05760144  .00000000  00000+0  00000+0 0  9998
2 42818   0.0118 223.7397 0002140 169.6513 167.9153  1.00271365 32301
INTELSAT 37E (IS-37E)   
1 42950U 17059A   26117.23378113  .00000000  00000+0  00000+0 0  9995
2 42950   0.0175 242.2006 0002361 181.5052 217.6819  1.00269610 31558
AZERSPACE 2 (IS-38)     
1 43632U 18074A   26117.20044858  .00000126  00000+0  00000+0 0  9993
2 43632   0.0215 254.1930 0001444 133.4629 304.8047  1.00270976 27932
HORIZONS-3E             
1 43633U 18074B   26117.10739284 -.00000041  00000+0  00000+0 0  9994
2 43633   0.0414  73.9030 0000665 260.1791  88.6672  1.00271310 27826
AT&T T-16               
1 44333U 19034A   26117.10183941 -.00000126  00000+0  00000+0 0  9996
2 44333   0.0431  71.5086 0000538 163.4814 275.9135  1.00271022 25124
INTELSAT 39 (IS-39)     
1 44476U 19049B   26117.13239314  .00000000  00000+0  00000+0 0  9999
2 44476   0.0212 248.8246 0000440 353.0774  82.8304  1.00269427 24612
GALAXY 30 (G-30)        
1 46114U 20056C   26117.03966138  .00000000  00000+0  00000+0 0  9990
2 46114   0.0126 236.3465 0002527 172.8147  55.1468  1.00271333 20788
GALAXY 33 (G-33)        
1 54026U 22128A   26117.16294919  .00000068  00000+0  00000+0 0  9992
2 54026   0.0148 278.1612 0001807 104.2351 118.4156  1.00273448 13235
GALAXY 34 (G-34)        
1 54027U 22128B   26117.24781855  .00000049  00000+0  00000+0 0  9991
2 54027   0.0126 240.0125 0001555 158.3101 137.1267  1.00272309 13407
